{"type": "FeatureCollection", "features": [ {"type": "Feature", "properties": {"norad_id": 38006, "name": "COSMOS 2251 DEB", "group": "cosmos-2251-debris", "lat": 24.879168620836367, "lon": -158.38563163628888, "alt_km": 791.1333349356046, "timestamp": "2025-12-17T09:00:17.545907+00:00", "meta": {"OBJECT_NAME": "COSMOS 2251 DEB", "OBJECT_ID": "1993-036BRH", "EPOCH": "2025-12-10T03:36:37.956384", "MEAN_MOTION": 14.45867865, "ECCENTRICITY": 0.00758537, "INCLINATION": 73.8744, "RA_OF_ASC_NODE": 42.933, "ARG_OF_PERICENTER": 348.3853, "MEAN_ANOMALY": 11.555, "EPHEMERIS_TYPE": 0, "CLASSIFICATION_TYPE": "U", "NORAD_CAT_ID": 38006, "ELEMENT_SET_NO": 999, "REV_AT_EPOCH": 62922, "BSTAR": 0.0047338847, "MEAN_MOTION_DOT": 0.00017443, "MEAN_MOTION_DDOT": 0}, "tle": {"line1": "1 38006U 93036BRH 25344.15043931  .00017443  00000+0  47339-2 0  9998", "line2": "2 38006  73.8744  42.9330 0075853 348.3853  11.5550 14.45867865629227"}}, "geometry": {"type": "Point", "coordinates": [-158.38563163628888, 24.879168620836367]}}, {"type": "Feature", "properties": {"norad_id": 38054, "name": "COSMOS 2251 DEB", "group": "cosmos-2251-debris", "lat": -38.391884731059776, "lon": -114.97259264132859, "alt_km": 997.8297391473398, "timestamp": "2025-12-17T09:00:17.545917+00:00", "meta": {"OBJECT_NAME": "COSMOS 2251 DEB", "OBJECT_ID": "1993-036BRL", "EPOCH": "2025-12-15T05:06:45.095616", "MEAN_MOTION": 13.62359843, "ECCENTRICITY": 0.03586598, "INCLINATION": 73.9547, "RA_OF_ASC_NODE": 261.7439, "ARG_OF_PERICENTER": 239.3839, "MEAN_ANOMALY": 275.8901, "EPHEMERIS_TYPE": 0, "CLASSIFICATION_TYPE": "U", "NORAD_CAT_ID": 38054, "ELEMENT_SET_NO": 999, "REV_AT_EPOCH": 67213, "BSTAR": 0.0016656272, "MEAN_MOTION_DOT": 1.964e-05, "MEAN_MOTION_DDOT": 0}, "tle": {"line1": "1 38054U 93036BRL 25349.21302194  .00001964  00000+0  16656-2 0  9991", "line2": "2 38054  73.9547 261.7439 0358659 239.3839 275.8901 13.62359843672137"}}, "geometry": {"type": "Point", "coordinates": [-114.97259264132859, -38.391884731059776]}}, {"type": "Feature", "properties": {"norad_id": 38055, "name": "COSMOS 2251 DEB", "group": "cosmos-2251-debris", "lat": -0.4079628163100669, "lon": -162.46094143038061, "alt_km": 603.7699603629635, "timestamp": "2025-12-17T09:00:17.545928+00:00", "meta": {"OBJECT_NAME": "COSMOS 2251 DEB", "OBJECT_ID": "1993-036BRM", "EPOCH": "2025-12-14T22:46:42.153600", "MEAN_MOTION": 14.77004867, "ECCENTRICITY": 0.00658572, "INCLINATION": 74.0091, "RA_OF_ASC_NODE": 202.4184, "ARG_OF_PERICENTER": 329.4708, "MEAN_ANOMALY": 94.9571, "EPHEMERIS_TYPE": 0, "CLASSIFICATION_TYPE": "U", "NORAD_CAT_ID": 38055, "ELEMENT_SET_NO": 999, "REV_AT_EPOCH": 60715, "BSTAR": 0.00052350473, "MEAN_MOTION_DOT": 3.79e-05, "MEAN_MOTION_DDOT": 0}, "tle": {"line1": "1 38055U 93036BRM 25348.94909900  .00003790  00000+0  52350-3 0  9990", "line2": "2 38055  74.0091 202.4184 0065857 329.4708  94.9571 14.77004867607157"}}, "geometry": {"type": "Point", "coordinates": [-162.46094143038061, -0.4079628163100669]}}, {"type": "Feature", "properties": {"norad_id": 38060, "name": "COSMOS 2251 DEB", "group": "cosmos-2251-debris", "lat": 4.60264236611454, "lon": -72.27105795904049, "alt_km": 645.7816691563148, "timestamp": "2025-12-17T09:00:17.545938+00:00", "meta": {"OBJECT_NAME": "COSMOS 2251 DEB", "OBJECT_ID": "1993-036BRS", "EPOCH": "2025-12-16T13:18:05.506560", "MEAN_MOTION": 14.63880294, "ECCENTRICITY": 0.00582507, "INCLINATION": 74.0431, "RA_OF_ASC_NODE": 287.9841, "ARG_OF_PERICENTER": 33.0197, "MEAN_ANOMALY": 327.4585, "EPHEMERIS_TYPE": 0, "CLASSIFICATION_TYPE": "U", "NORAD_CAT_ID": 38060, "ELEMENT_SET_NO": 999, "REV_AT_EPOCH": 72020, "BSTAR": 0.00043688442, "MEAN_MOTION_DOT": 2.309e-05, "MEAN_MOTION_DDOT": 0}, "tle": {"line1": "1 38060U 93036BRS 25350.55423040  .00002309  00000+0  43688-3 0  9991", "line2": "2 38060  74.0431 287.9841 0058250  33.0197 327.4585 14.63880294720200"}}, "geometry": {"type": "Point", "coordinates": [-72.27105795904049, 4.60264236611454]}}, {"type": "Feature", "properties": {"norad_id": 38062, "name": "COSMOS 2251 DEB", "group": "cosmos-2251-debris", "lat": 44.67680745671186, "lon": 84.63508409144887, "alt_km": 576.6713161131966, "timestamp": "2025-12-17T09:00:17.545948+00:00", "meta": {"OBJECT_NAME": "COSMOS 2251 DEB", "OBJECT_ID": "1993-036BRU", "EPOCH": "2025-12-12T07:01:37.512192", "MEAN_MOTION": 14.94806818, "ECCENTRICITY": 0.00123829, "INCLINATION": 74.0077, "RA_OF_ASC_NODE": 291.3712, "ARG_OF_PERICENTER": 60.6656, "MEAN_ANOMALY": 90.0551, "EPHEMERIS_TYPE": 0, "CLASSIFICATION_TYPE": "U", "NORAD_CAT_ID": 38062, "ELEMENT_SET_NO": 999, "REV_AT_EPOCH": 63023, "BSTAR": 0.0035861639, "MEAN_MOTION_DOT": 0.00039272, "MEAN_MOTION_DDOT": 0}, "tle": {"line1": "1 38062U 93036BRU 25346.29279528  .00039272  00000+0  35862-2 0  9992", "line2": "2 38062  74.0077 291.3712 0012382  60.6656  90.0551 14.94806818630239"}}, "geometry": {"type": "Point", "coordinates": [84.63508409144887, 44.67680745671186]}}, {"type": "Feature", "properties": {"norad_id": 38064, "name": "COSMOS 2251 DEB", "group": "cosmos-2251-debris", "lat": 51.34826386550859, "lon": -85.65697711297692, "alt_km": 710.3885191083673, "timestamp": "2025-12-17T09:00:17.545958+00:00", "meta": {"OBJECT_NAME": "COSMOS 2251 DEB", "OBJECT_ID": "1993-036BRW", "EPOCH": "2025-12-15T18:30:24.409440", "MEAN_MOTION": 14.56328099, "ECCENTRICITY": 0.00473514, "INCLINATION": 74.0215, "RA_OF_ASC_NODE": 118.3811, "ARG_OF_PERICENTER": 237.4886, "MEAN_ANOMALY": 122.1698, "EPHEMERIS_TYPE": 0, "CLASSIFICATION_TYPE": "U", "NORAD_CAT_ID": 38064, "ELEMENT_SET_NO": 999, "REV_AT_EPOCH": 71909, "BSTAR": 0.0007096549, "MEAN_MOTION_DOT": 3.164e-05, "MEAN_MOTION_DDOT": 0}, "tle": {"line1": "1 38064U 93036BRW 25349.77111585  .00003164  00000+0  70965-3 0  9993", "line2": "2 38064  74.0215 118.3811 0047351 237.4886 122.1698 14.56328099719095"}}, "geometry": {"type": "Point", "coordinates": [-85.65697711297692, 51.34826386550859]}}, {"type": "Feature", "properties": {"norad_id": 38067, "name": "COSMOS 2251 DEB", "group": "cosmos-2251-debris", "lat": -7.050431052215978, "lon": 87.6641266238747, "alt_km": 727.6147625331132, "timestamp": "2025-12-17T09:00:17.545969+00:00", "meta": {"OBJECT_NAME": "COSMOS 2251 DEB", "OBJECT_ID": "1993-036BRZ", "EPOCH": "2025-12-14T13:35:01.091904", "MEAN_MOTION": 14.61135602, "ECCENTRICITY": 0.00694851, "INCLINATION": 74.0173, "RA_OF_ASC_NODE": 271.0073, "ARG_OF_PERICENTER": 58.167, "MEAN_ANOMALY": 117.7661, "EPHEMERIS_TYPE": 0, "CLASSIFICATION_TYPE": "U", "NORAD_CAT_ID": 38067, "ELEMENT_SET_NO": 999, "REV_AT_EPOCH": 62582, "BSTAR": 0.00041702153, "MEAN_MOTION_DOT": 2.092e-05, "MEAN_MOTION_DDOT": 0}, "tle": {"line1": "1 38067U 93036BRZ 25348.56598486  .00002092  00000+0  41702-3 0  9997", "line2": "2 38067  74.0173 271.0073 0069485  58.1670 117.7661 14.61135602625828"}}, "geometry": {"type": "Point", "coordinates": [87.6641266238747, -7.050431052215978]}}, {"type": "Feature", "properties": {"norad_id": 38068, "name": "COSMOS 2251 DEB", "group": "cosmos-2251-debris", "lat": -65.35752618383742, "lon": 158.38903289440026, "alt_km": 791.1663529654898, "timestamp": "2025-12-17T09:00:17.545979+00:00", "meta": {"OBJECT_NAME": "COSMOS 2251 DEB", "OBJECT_ID": "1993-036BSA", "EPOCH": "2025-11-26T00:12:22.263264", "MEAN_MOTION": 14.35960004, "ECCENTRICITY": 0.00240903, "INCLINATION": 74.0219, "RA_OF_ASC_NODE": 338.9788, "ARG_OF_PERICENTER": 72.1007, "MEAN_ANOMALY": 288.2769, "EPHEMERIS_TYPE": 0, "CLASSIFICATION_TYPE": "U", "NORAD_CAT_ID": 38068, "ELEMENT_SET_NO": 999, "REV_AT_EPOCH": 66406, "BSTAR": 0.00028750999, "MEAN_MOTION_DOT": 8.11e-06, "MEAN_MOTION_DDOT": 0}, "tle": {"line1": "1 38068U 93036BSA 25330.00859101  .00000811  00000+0  28751-3 0  9998", "line2": "2 38068  74.0219 338.9788 0024090  72.1007 288.2769 14.35960004664064"}}, "geometry": {"type": "Point", "coordinates": [158.38903289440026, -65.35752618383742]}}, {"type": "Feature", "properties": {"norad_id": 38197, "name": "COSMOS 2251 DEB", "group": "cosmos-2251-debris", "lat": 23.6069267561707, "lon": 160.71021236985817, "alt_km": 614.0578611232258, "timestamp": "2025-12-17T09:00:17.545989+00:00", "meta": {"OBJECT_NAME": "COSMOS 2251 DEB", "OBJECT_ID": "1993-036BSM", "EPOCH": "2025-12-16T06:14:02.328288", "MEAN_MOTION": 14.74215127, "ECCENTRICITY": 0.01256615, "INCLINATION": 73.9373, "RA_OF_ASC_NODE": 350.1341, "ARG_OF_PERICENTER": 226.7018, "MEAN_ANOMALY": 132.3623, "EPHEMERIS_TYPE": 0, "CLASSIFICATION_TYPE": "U", "NORAD_CAT_ID": 38197, "ELEMENT_SET_NO": 999, "REV_AT_EPOCH": 85807, "BSTAR": 0.0024676247, "MEAN_MOTION_DOT": 0.00018525, "MEAN_MOTION_DDOT": 0}, "tle": {"line1": "1 38197U 93036BSM 25350.25974917  .00018525  00000+0  24676-2 0  9995", "line2": "2 38197  73.9373 350.1341 0125661 226.7018 132.3623 14.74215127858078"}}, "geometry": {"type": "Point", "coordinates": [160.71021236985817, 23.6069267561707]}}, {"type": "Feature", "properties": {"norad_id": 38199, "name": "COSMOS 2251 DEB", "group": "cosmos-2251-debris", "lat": -71.51730126257509, "lon": -4.8402302770830925, "alt_km": 884.325180109744, "timestamp": "2025-12-17T09:00:17.545999+00:00", "meta": {"OBJECT_NAME": "COSMOS 2251 DEB", "OBJECT_ID": "1993-036BSP", "EPOCH": "2025-12-16T21:03:40.396032", "MEAN_MOTION": 13.64799564, "ECCENTRICITY": 0.03698264, "INCLINATION": 73.956, "RA_OF_ASC_NODE": 55.3904, "ARG_OF_PERICENTER": 341.0489, "MEAN_ANOMALY": 17.7154, "EPHEMERIS_TYPE": 0, "CLASSIFICATION_TYPE": "U", "NORAD_CAT_ID": 38199, "ELEMENT_SET_NO": 999, "REV_AT_EPOCH": 61078, "BSTAR": 0.00049197575, "MEAN_MOTION_DOT": 6.09e-06, "MEAN_MOTION_DDOT": 0}, "tle": {"line1": "1 38199U 93036BSP 25350.87755088  .00000609  00000+0  49198-3 0  9992", "line2": "2 38199  73.9560  55.3904 0369826 341.0489  17.7154 13.64799564610782"}}, "geometry": {"type": "Point", "coordinates": [-4.8402302770830925, -71.51730126257509]}}]}